[{"OBJECT_NAME":"STARLINK-32294","OBJECT_ID":"2024-193Q","EPOCH":"2026-03-09T09:19:21.317952","MEAN_MOTION":15.30187949,"ECCENTRICITY":0.00013324,"INCLINATION":53.1599,"RA_OF_ASC_NODE":92.1815,"ARG_OF_PERICENTER":86.2301,"MEAN_ANOMALY":273.8852,"EPHEMERIS_TYPE":0,"CLASSIFICATION_TYPE":"U","NORAD_CAT_ID":61675,"ELEMENT_SET_NO":999,"REV_AT_EPOCH":7648,"BSTAR":-7.939062e-6,"MEAN_MOTION_DOT":-5.94e-6,"MEAN_MOTION_DDOT":0},{"OBJECT_NAME":"CZ-4B DEB","OBJECT_ID":"1999-057DZ","EPOCH":"2026-03-09T09:52:12.897696","MEAN_MOTION":15.33653758,"ECCENTRICITY":0.00127381,"INCLINATION":98.4932,"RA_OF_ASC_NODE":238.6814,"ARG_OF_PERICENTER":254.7139,"MEAN_ANOMALY":105.2693,"EPHEMERIS_TYPE":0,"CLASSIFICATION_TYPE":"U","NORAD_CAT_ID":26235,"ELEMENT_SET_NO":999,"REV_AT_EPOCH":38912,"BSTAR":0.0023807093,"MEAN_MOTION_DOT":0.00078286,"MEAN_MOTION_DDOT":0}]
